start=new Date('2022-01-17T00:00:00.000Z').valueOf();
sats=[{"NORAD_CAT_ID":"48145","REV_AT_EPOCH":"4425","EPOCH":"2022-01-16T16:08:20.308128","MEAN_MOTION_DOT":"0.00004088","MEAN_MOTION_DDOT":"0.0000000000000","CENTER_NAME":"EARTH","OBJECT_NAME":"STARLINK-2488","GP_ID":"193992453","CLASSIFICATION_TYPE":"U","PERIOD":"95.591","SEMIMAJOR_AXIS":"6925.306","MEAN_MOTION":"15.06414040","BSTAR":"0.00029304000000","OBJECT_ID":"2021-027BF","ECCENTRICITY":"0.00014330","LAUNCH_DATE":"2021-04-07","REF_FRAME":"TEME","MEAN_ELEMENT_THEORY":"SGP4","RA_OF_ASC_NODE":"103.8114","DECAY_DATE":null,"TLE_LINE2":"2 48145  53.0549 103.8114 0001433  95.1832 264.9320 15.06414040 44253","APOAPSIS":"548.163","RCS_SIZE":"LARGE","INCLINATION":"53.0549","TLE_LINE1":"1 48145U 21027BF  22016.67245727  .00004088  00000-0  29304-3 0  9996","SITE":"AFETR","FILE":"3274883","EPHEMERIS_TYPE":"0","COUNTRY_CODE":"US","OBJECT_TYPE":"PAYLOAD","MEAN_ANOMALY":"264.9320","ELEMENT_SET_NO":"999","TIME_SYSTEM":"UTC","PERIAPSIS":"546.178","ARG_OF_PERICENTER":"95.1832"},{"ARG_OF_PERICENTER":"87.3487","TIME_SYSTEM":"UTC","PERIAPSIS":"546.055","ELEMENT_SET_NO":"999","COUNTRY_CODE":"US","MEAN_ANOMALY":"272.7693","OBJECT_TYPE":"PAYLOAD","FILE":"3274921","SITE":"AFETR","EPHEMERIS_TYPE":"0","TLE_LINE1":"1 48146U 21027BG  22016.80331286 -.00000532  00000-0 -16787-4 0  9992","INCLINATION":"53.0552","RCS_SIZE":"LARGE","APOAPSIS":"548.366","TLE_LINE2":"2 48146  53.0552 123.2295 0001669  87.3487 272.7693 15.06400963 43993","DECAY_DATE":null,"MEAN_ELEMENT_THEORY":"SGP4","RA_OF_ASC_NODE":"123.2295","REF_FRAME":"TEME","LAUNCH_DATE":"2021-04-07","PERIOD":"95.592","SEMIMAJOR_AXIS":"6925.346","MEAN_MOTION":"15.06400963","BSTAR":"-0.00001678700000","OBJECT_ID":"2021-027BG","ECCENTRICITY":"0.00016690","CLASSIFICATION_TYPE":"U","OBJECT_NAME":"STARLINK-2489","GP_ID":"193993016","CENTER_NAME":"EARTH","MEAN_MOTION_DOT":"-0.00000532","MEAN_MOTION_DDOT":"0.0000000000000","EPOCH":"2022-01-16T19:16:46.231104","REV_AT_EPOCH":"4399","NORAD_CAT_ID":"48146"},{"CLASSIFICATION_TYPE":"U","BSTAR":"-0.00008493100000","ECCENTRICITY":"0.00013770","OBJECT_ID":"2021-027BH","PERIOD":"95.592","SEMIMAJOR_AXIS":"6925.342","MEAN_MOTION":"15.06402212","CENTER_NAME":"EARTH","GP_ID":"193993150","OBJECT_NAME":"STARLINK-2490","EPOCH":"2022-01-16T17:37:54.711264","MEAN_MOTION_DDOT":"0.0000000000000","MEAN_MOTION_DOT":"-0.00001546","REV_AT_EPOCH":"4391","NORAD_CAT_ID":"48147","RCS_SIZE":"LARGE","DECAY_DATE":null,"APOAPSIS":"548.160","TLE_LINE2":"2 48147  53.0599 128.5204 0001377  85.4286 274.6860 15.06402212 43913","RA_OF_ASC_NODE":"128.5204","MEAN_ELEMENT_THEORY":"SGP4","LAUNCH_DATE":"2021-04-07","REF_FRAME":"TEME","MEAN_ANOMALY":"274.6860","OBJECT_TYPE":"PAYLOAD","COUNTRY_CODE":"US","EPHEMERIS_TYPE":"0","FILE":"3274921","SITE":"AFETR","INCLINATION":"53.0599","TLE_LINE1":"1 48147U 21027BH  22016.73466101 -.00001546  00000-0 -84931-4 0  9992","ARG_OF_PERICENTER":"85.4286","ELEMENT_SET_NO":"999","PERIAPSIS":"546.253","TIME_SYSTEM":"UTC"},{"ARG_OF_PERICENTER":"81.5806","ELEMENT_SET_NO":"999","TIME_SYSTEM":"UTC","PERIAPSIS":"546.291","FILE":"3274921","EPHEMERIS_TYPE":"0","SITE":"AFETR","COUNTRY_CODE":"US","OBJECT_TYPE":"PAYLOAD","MEAN_ANOMALY":"278.5330","INCLINATION":"53.0551","TLE_LINE1":"1 48148U 21027BJ  22016.70379097  .00000202  00000-0  32424-4 0  9993","DECAY_DATE":null,"TLE_LINE2":"2 48148  53.0551 123.6873 0001300  81.5806 278.5330 15.06407333 43971","APOAPSIS":"548.091","RCS_SIZE":"LARGE","LAUNCH_DATE":"2021-04-07","REF_FRAME":"TEME","MEAN_ELEMENT_THEORY":"SGP4","RA_OF_ASC_NODE":"123.6873","CENTER_NAME":"EARTH","OBJECT_NAME":"STARLINK-2491","GP_ID":"193993152","CLASSIFICATION_TYPE":"U","PERIOD":"95.592","SEMIMAJOR_AXIS":"6925.326","MEAN_MOTION":"15.06407333","BSTAR":"0.00003242400000","OBJECT_ID":"2021-027BJ","ECCENTRICITY":"0.00013000","REV_AT_EPOCH":"4397","NORAD_CAT_ID":"48148","EPOCH":"2022-01-16T16:53:27.539808","MEAN_MOTION_DDOT":"0.0000000000000","MEAN_MOTION_DOT":"0.00000202"},{"OBJECT_ID":"2021-027BK","BSTAR":"0.00027321000000","ECCENTRICITY":"0.00012930","SEMIMAJOR_AXIS":"6925.316","PERIOD":"95.591","MEAN_MOTION":"15.06410536","CLASSIFICATION_TYPE":"U","GP_ID":"193985613","OBJECT_NAME":"STARLINK-2492","CENTER_NAME":"EARTH","MEAN_MOTION_DOT":"0.00003791","MEAN_MOTION_DDOT":"0.0000000000000","EPOCH":"2022-01-16T12:25:24.910752","NORAD_CAT_ID":"48149","REV_AT_EPOCH":"4462","RCS_SIZE":"LARGE","APOAPSIS":"548.077","TLE_LINE2":"2 48149  53.0544 104.5039 0001293  90.4004 269.7133 15.06410536 44621","DECAY_DATE":null,"RA_OF_ASC_NODE":"104.5039","MEAN_ELEMENT_THEORY":"SGP4","REF_FRAME":"TEME","LAUNCH_DATE":"2021-04-07","MEAN_ANOMALY":"269.7133","OBJECT_TYPE":"PAYLOAD","COUNTRY_CODE":"US","FILE":"3274671","SITE":"AFETR","EPHEMERIS_TYPE":"0","TLE_LINE1":"1 48149U 21027BK  22016.51764943  .00003791  00000-0  27321-3 0  9996","INCLINATION":"53.0544","ARG_OF_PERICENTER":"90.4004","PERIAPSIS":"546.286","TIME_SYSTEM":"UTC","ELEMENT_SET_NO":"999"},{"RCS_SIZE":"LARGE","DECAY_DATE":null,"TLE_LINE2":"2 48150  53.0563 104.5034 0001267 112.6319 247.4804 15.06412129 44635","APOAPSIS":"548.054","RA_OF_ASC_NODE":"104.5034","MEAN_ELEMENT_THEORY":"SGP4","LAUNCH_DATE":"2021-04-07","REF_FRAME":"TEME","CLASSIFICATION_TYPE":"U","BSTAR":"0.00014004000000","ECCENTRICITY":"0.00012670","OBJECT_ID":"2021-027BL","PERIOD":"95.591","SEMIMAJOR_AXIS":"6925.311","MEAN_MOTION":"15.06412129","CENTER_NAME":"EARTH","GP_ID":"193984863","OBJECT_NAME":"STARLINK-2493","EPOCH":"2022-01-16T12:30:43.380288","MEAN_MOTION_DOT":"0.00001806","MEAN_MOTION_DDOT":"0.0000000000000","REV_AT_EPOCH":"4463","NORAD_CAT_ID":"48150","ARG_OF_PERICENTER":"112.6319","ELEMENT_SET_NO":"999","TIME_SYSTEM":"UTC","PERIAPSIS":"546.299","OBJECT_TYPE":"PAYLOAD","MEAN_ANOMALY":"247.4804","COUNTRY_CODE":"US","FILE":"3274671","EPHEMERIS_TYPE":"0","SITE":"AFETR","INCLINATION":"53.0563","TLE_LINE1":"1 48150U 21027BL  22016.52133542  .00001806  00000-0  14004-3 0  9993"},{"DECAY_DATE":null,"TLE_LINE2":"2 48151  53.0552 104.4830 0001324  88.9483 271.1658 15.06419470 44635","APOAPSIS":"548.071","RCS_SIZE":"LARGE","LAUNCH_DATE":"2021-04-07","REF_FRAME":"TEME","MEAN_ELEMENT_THEORY":"SGP4","RA_OF_ASC_NODE":"104.4830","CENTER_NAME":"EARTH","OBJECT_NAME":"STARLINK-2503","GP_ID":"193985113","CLASSIFICATION_TYPE":"U","PERIOD":"95.591","SEMIMAJOR_AXIS":"6925.289","MEAN_MOTION":"15.06419470","ECCENTRICITY":"0.00013240","BSTAR":"0.00030248000000","OBJECT_ID":"2021-027BM","REV_AT_EPOCH":"4463","NORAD_CAT_ID":"48151","EPOCH":"2022-01-16T12:36:01.797120","MEAN_MOTION_DDOT":"0.0000000000000","MEAN_MOTION_DOT":"0.00004229","ARG_OF_PERICENTER":"88.9483","ELEMENT_SET_NO":"999","TIME_SYSTEM":"UTC","PERIAPSIS":"546.237","FILE":"3274671","EPHEMERIS_TYPE":"0","SITE":"AFETR","COUNTRY_CODE":"US","OBJECT_TYPE":"PAYLOAD","MEAN_ANOMALY":"271.1658","INCLINATION":"53.0552","TLE_LINE1":"1 48151U 21027BM  22016.52502080  .00004229  00000-0  30248-3 0  9991"},{"NORAD_CAT_ID":"48276","REV_AT_EPOCH":"4132","MEAN_MOTION_DOT":"-0.00071047","MEAN_MOTION_DDOT":"0.0000000000000","EPOCH":"2022-01-16T14:00:01.000224","OBJECT_NAME":"STARLINK-2567","GP_ID":"193957333","CENTER_NAME":"EARTH","PERIOD":"95.590","MEAN_MOTION":"15.06435942","SEMIMAJOR_AXIS":"6925.238","BSTAR":"-0.00479390000000","OBJECT_ID":"2021-036A","ECCENTRICITY":"0.00015140","CLASSIFICATION_TYPE":"U","REF_FRAME":"TEME","LAUNCH_DATE":"2021-04-29","MEAN_ELEMENT_THEORY":"SGP4","RA_OF_ASC_NODE":"359.2092","TLE_LINE2":"2 48276  53.0565 359.2092 0001514  61.5564  32.5088 15.06435942 41326","APOAPSIS":"548.152","DECAY_DATE":null,"RCS_SIZE":"LARGE","TLE_LINE1":"1 48276U 21036A   22016.58334491 -.00071047  00000-0 -47939-2 0  9992","INCLINATION":"53.0565","FILE":"3274395","EPHEMERIS_TYPE":"0","SITE":"AFETR","COUNTRY_CODE":"US","OBJECT_TYPE":"PAYLOAD","MEAN_ANOMALY":"32.5088","TIME_SYSTEM":"UTC","PERIAPSIS":"546.055","ELEMENT_SET_NO":"999","ARG_OF_PERICENTER":"61.5564"},{"MEAN_MOTION_DOT":"-0.00048684","MEAN_MOTION_DDOT":"0.0000000000000","EPOCH":"2022-01-16T14:00:01.000224","REV_AT_EPOCH":"359","NORAD_CAT_ID":"48277","PERIOD":"95.591","SEMIMAJOR_AXIS":"6925.303","MEAN_MOTION":"15.06414924","ECCENTRICITY":"0.00022450","BSTAR":"-0.00327040000000","OBJECT_ID":"2021-036B","CLASSIFICATION_TYPE":"U","OBJECT_NAME":"STARLINK-2569","GP_ID":"193985379","CENTER_NAME":"EARTH","MEAN_ELEMENT_THEORY":"SGP4","RA_OF_ASC_NODE":"324.1973","REF_FRAME":"TEME","LAUNCH_DATE":"2021-04-29","RCS_SIZE":"LARGE","APOAPSIS":"548.723","TLE_LINE2":"2 48277  53.0530 324.1973 0002245  58.0248  28.5819 15.06414924  3591","DECAY_DATE":null,"TLE_LINE1":"1 48277U 21036B   22016.58334491 -.00048684  00000-0 -32704-2 0  9998","INCLINATION":"53.0530","COUNTRY_CODE":"US","MEAN_ANOMALY":"28.5819","OBJECT_TYPE":"PAYLOAD","EPHEMERIS_TYPE":"0","FILE":"3274671","SITE":"AFETR","PERIAPSIS":"545.613","TIME_SYSTEM":"UTC","ELEMENT_SET_NO":"999","ARG_OF_PERICENTER":"58.0248"},{"ARG_OF_PERICENTER":"53.6824","TIME_SYSTEM":"UTC","PERIAPSIS":"548.350","ELEMENT_SET_NO":"999","FILE":"3274395","SITE":"AFETR","EPHEMERIS_TYPE":"0","OBJECT_TYPE":"PAYLOAD","MEAN_ANOMALY":"234.0433","COUNTRY_CODE":"US","TLE_LINE1":"1 48278U 21036C   22016.58334491 -.00077948  00000-0 -53840-2 0  9998","INCLINATION":"53.0558","TLE_LINE2":"2 48278  53.0558 339.2497 0001816  53.6824 234.0433 15.05619131 41600","APOAPSIS":"550.866","DECAY_DATE":null,"RCS_SIZE":"LARGE","REF_FRAME":"TEME","LAUNCH_DATE":"2021-04-29","RA_OF_ASC_NODE":"339.2497","MEAN_ELEMENT_THEORY":"SGP4","GP_ID":"193957832","OBJECT_NAME":"STARLINK-2543","CENTER_NAME":"EARTH","ECCENTRICITY":"0.00018160","BSTAR":"-0.00538400000000","OBJECT_ID":"2021-036C","MEAN_MOTION":"15.05619131","PERIOD":"95.642","SEMIMAJOR_AXIS":"6927.743","CLASSIFICATION_TYPE":"U","NORAD_CAT_ID":"48278","REV_AT_EPOCH":"4160","MEAN_MOTION_DOT":"-0.00077948","MEAN_MOTION_DDOT":"0.0000000000000","EPOCH":"2022-01-16T14:00:01.000224"}];
